[Satellite]
VERSION=1.1
NAME=CELESTA
NICKNAME=CELESTA
TLE1=1 53111U 22080G   22310.17474584 -.00000003  00000-0  00000-0 0  9995
TLE2=2 53111  70.4223  37.2580 0024959 243.8956 115.9136  6.43203861  7301
STATUS=0
